#dP2024 12 28  0  0  0.00000000      97 __u+U IGS20 FIT  IAC
## 2346 518400.00000000   900.00000000 60672 0.0000000000000
+  117   C06C07C08C09C10C11C12C13C14C16C19C20C21C22C23C24C25
+        C26C27C28C29C30C32C33C34C35C36C37C38C39C40C41C42C43
+        C44C45E02E03E04E05E06E07E08E09E10E11E12E13E14E15E18
+        E19E21E24E25E26E27E29E30E31E33E34E36G02G03G04G05G06
+        G07G08G09G10G11G12G13G14G15G16G17G18G19G20G21G22G23
+        G24G25G26G27G28G29G30G31G32J02J04R01R02R03R04R05R07
+        R08R09R11R12R14R15R16R17R18R19R20R21R22R24R26  0  0
++         7  7  7  7  7  7  7  7 10  7  6  6  5  6  6  5  6
++         5  5  6  6  6  5  6  6  5  6  5  6  6  6  6  6  6
++         5  5  4  4  4  4  4  4  4  4  4  4  4  4  4  4  4
++         4  4  4  4  4  4  4  4  4  4  4  4  3  3  3  4  3
++         3  4  3  3  3  3  3  3  3  4  3  3  3  3  3  3  3
++         3  3  3  3  3  3  3  3  3 10 10  7  6  6  6  6  6
++         6  6  7  6  6  6  6  6  6  7  7  6  7  7  7  0  0
%c M  cc GPS ccc cccc cccc cccc cccc ccccc ccccc ccccc ccccc
%c cc cc ccc ccc cccc cccc cccc cccc ccccc ccccc ccccc ccccc
%f  1.2500000  1.025000000  0.00000000000  0.000000000000000
%f  0.0000000  0.000000000  0.00000000000  0.000000000000000
%i    0    0    0    0      0      0      0      0         0
%i    0    0    0    0      0      0      0      0         0
/* INFORMATION & ANALYSIS CENTER (IAC)            FINAL DATA
/* S/V CLOCKS ARE ALIGNED TO GNSS TIME                      
/* G:C1WC2W R:C1PC2P E:C1XC5X C:C2IC6I J:C1CC2S             
/* PCV:IGS20_2317 OL/AL:FES2004  NONE     YN ORB:CoN CLK:CoN
*  2024 12 28 21 30  0.00000000
PC06 -12843.245376  40331.711035    145.301342    600.557351
PC07  -4176.729390  29731.524961 -29407.030605    -85.842867
PC08 -16279.656901  22172.457833  31878.809991    252.783670
PC09  -9123.735815  40714.531251  -7685.293835   -851.708038
PC10   3544.826110  32145.424126 -26411.838080   -361.757667
PC11   5400.288855 -24295.371366  12696.903715    311.090767
PC12  14441.205056  -7218.477328  22805.871382   -226.959938
PC13 -10232.047507  23707.439281  33445.826144     73.581352
PC14   7249.282639 -13863.601560 -23097.427172   -594.965668
PC16 -14249.629620  39851.102493   2397.918648    -13.111647
PC19   3287.397421  16909.591867  21971.777060   -965.713958
PC20 -15231.589277   9533.714932  21366.407200   -882.691521
PC21  26451.717830   4513.211546  -7608.788015   -907.066946
PC22  21207.687091  15119.451551   9985.923424    217.682697
PC23 -10652.008337 -12428.192223  22594.523979   -932.547722
PC24  21513.036955 -17798.905285   -105.469694    714.536035
PC25   7195.331018 -21659.198898  16056.104767    601.274713
PC26  22576.718525  -4523.108926 -15817.445589   -397.805824
PC27 -16487.695974  -3376.319846 -22274.060861    415.993119
PC28 -13482.568312 -19831.749566 -14260.581051    325.074527
PC29   1741.775444  27324.929262  -5403.654637    381.608517
PC30 -11099.984025  16096.194025 -19925.168680     65.250813
PC32 -26527.450079  -4363.256915   7521.230193   -857.979268
PC33  -3327.918747 -16892.151718 -21963.581373   -947.092435
PC34  10146.548430 -17741.462694  18981.524704    595.508447
PC35  13976.563892  19981.194953  13592.080781    168.922768
PC36  -7308.706313  21416.975778 -16308.473934    244.292850
PC37 -22505.337595   3647.837992  16070.243948   -899.296145
PC38 -23280.590741  23971.165651  25695.718693    199.700905
PC39 -15428.719627  38377.015425   8903.790095    -10.661858
PC40  -6955.813782  25223.032524 -32976.304440   -111.209714
PC41 -20617.556936 -15367.421205 -10806.845633   -883.460318
PC42  16926.232810  -8398.294334 -20484.901445   -551.244600
PC43  -1079.310312 -27166.042989   6232.903241     96.681681
PC44  16760.049670   2900.361150  22114.819926    694.869505
PC45  10033.545368  12792.231585 -22694.513939   -197.668656
PE02 -23500.282035  -9164.027603  15462.226658    185.829168
PE03 -20502.989418 -19622.055512   8419.156808   -162.965424
PE04  19479.250142   1086.761352 -22257.883410   -118.449648
PE05  -9446.000078 -26190.821246 -10047.636485   4814.266855
PE06  14425.149295  -9127.516456 -24197.539914    -63.962109
PE07  -7440.493411  17268.090213  22860.128732   -160.646474
PE08 -19644.429171  -1928.097280  22055.820129   -391.451645
PE09   7384.246565 -17151.647644 -22971.548545   -717.286265
PE10  18608.999073 -18786.072899  13310.562686   -679.514503
PE11  14830.084886 -25381.436325   3407.687319     -1.621325
PE12  19340.931421 -10269.138485  19912.551481  -1361.226425
PE13 -15085.258653  25160.584427  -3969.163139    -28.469916
PE14 -22283.674433 -22981.660970  -5301.991861    523.356939
PE15 -19215.177723   9557.269195 -20375.571233   -147.756508
PE18  16313.892931  16176.468520   4750.139284    936.003863
PE19  19799.701824  20908.083306  -6862.154081   1152.720091
PE21   4467.324725  16494.103454 -24176.868339   -636.867401
PE24  17873.440600 -14303.909660  18757.693688  -1181.086759
PE25  -3910.249950 -16561.161622  24217.416385     12.716061
PE26  -1767.635654  25623.841341  14727.991365   -169.983214
PE27 -17778.647592  14336.368637 -18826.923695   -541.762045
PE29   9630.645812  26275.867379   9661.001729    -57.482140
PE30 -29234.413893   3785.292441  -2593.739643  -1077.537356
PE31  29266.283276  -3747.374023   2434.933683    -48.391413
PE33  11739.709418  11820.820179  24477.999307     16.418378
PE34 -11999.095861 -11404.440574 -24532.902082   -154.402892
PE36   2265.875582 -25763.241906 -14377.744573   -331.340790
PG02  14087.541544 -19158.380673  11883.870066   -281.130255
PG03  18814.819282 -12316.614590 -14206.131138    634.769683
PG04   8041.157076 -13696.879739 -21245.725161    503.276411
PG05 -26084.331174   5193.205070   -291.494848   -197.387018
PG06  -8884.334348 -14105.434423 -20573.364256    -78.555697
PG07   5409.525736 -25253.703218   5603.012608    -14.322672
PG08  16579.567161  -3261.178282  20464.337407    449.021572
PG09   -657.843422 -19847.451606 -17699.311245    506.359571
PG10  14133.539118  11117.473588  19895.145010   -253.437208
PG11 -15622.986201  -1214.843752 -21395.497603   -752.642647
PG12 -21715.016403  10115.606389 -11711.021802   -561.171952
PG13 -18258.341290  -6826.359847  17917.250685    691.616652
PG14 -10089.518258 -13628.803760  20540.904369    569.319416
PG15 -15640.283003   5838.119170  20167.674440    245.084931
PG16  26352.464615   1640.177985  -4969.710946    -91.668829
PG17 -12255.565120 -22997.596403   4929.318046    499.193020
PG18  -4589.386206  24933.232456   7551.790845   -659.492042
PG19 -17492.980238 -19471.888677  -5850.713338    579.486800
PG20 -23547.771505   -757.472602 -12043.609751    367.516551
PG21  15792.848158 -12879.837314  16779.692484     98.915342
PG22 -17099.733644 -11006.598504  17304.641127    -89.195588
PG23  -1569.692378  15091.157373  21816.493881    392.840465
PG24 -14382.009433  18028.588416  12348.344620   -469.441738
PG25  -9290.841161  15825.075504 -19467.610575    497.533647
PG26  21505.557729   6068.469034 -14827.702974    -26.363229
PG27  20400.254774   8427.526440  14777.463690    -33.724852
PG28   8698.125731  16031.660051 -19322.314673   -520.888641
PG29   -772.815608  19983.672579 -17462.173392   -552.002933
PG30  -3724.823163 -21507.319623  15098.425021   -251.341730
PG31  14217.241262   6132.833306 -21823.016975   -219.059191
PG32  16357.940691  21050.213421   1142.448764   -551.390923
PJ02 -32487.835651  15009.703471 -17622.180147     -0.213362
PJ04 -26540.410708  25886.536500  25924.579705     21.298739
PR01  22590.631530  11747.984119  -1457.683568    109.350767
PR02  18886.116969   2299.411052 -16984.847622    -38.856457
PR03   4648.085272  -9746.111294 -23060.494474    114.046520
PR04 -11503.737867 -15815.704617 -16334.288612    270.353136
PR05 -21498.603655 -13671.697959   -876.245083    142.910805
PR07  -4217.491304  10029.844695  23114.661118     97.813504
PR08  11827.590146  15847.457610  16200.054217     -6.188880
PR09 -22611.626609  10308.142248   5957.935078    228.868580
PR11  -2898.174700  13445.999936 -21480.163029      2.711103
PR12  15594.780240   2215.469208 -20051.528716     48.963893
PR14  16612.372177 -15871.233619  11065.989335     27.503184
PR15   1074.118222 -12818.929377  22036.960375     72.726368
PR16 -15430.606243  -2170.725650  20208.121761     32.023900
PR17   5441.386303 -22415.395238  10949.513193    152.572996
PR18  -1631.791135 -24866.333900  -5303.602424    179.146607
PR19  -6986.077309 -16767.339780 -17902.779277   -303.573928
PR20 -10483.769922   5852.444963 -22496.142634   -123.901917
PR21  -6065.604085  21657.155332 -12004.066493   -163.455615
PR22   1837.238551  24593.610141   6572.997386    -53.185433
PR24  10618.063720  -6847.619846  22184.883814    -85.924640
PR26  10253.978392  15483.243474  17499.406405   -132.338101
EOF
